HISAKI (SPRINT-A)       
1 39253U 13049A   17345.87772205  .00000109  00000-0  63697-4 0  9992
2 39253  29.7178 181.6689 0136874  18.7183 341.8361 13.55181547209315
